{"type": "FeatureCollection", "features": [ {"type": "Feature", "properties": {"norad_id": 66617, "name": "STARLINK-35940", "group": "last-30-days", "lat": -46.560756265689896, "lon": 76.529513902628, "alt_km": 377.926079602722, "timestamp": "2025-12-09T05:43:19.510341+00:00", "meta": {"OBJECT_NAME": "STARLINK-35940", "OBJECT_ID": "2025-271A", "EPOCH": "2025-12-08T20:00:01.999008", "MEAN_MOTION": 15.66968803, "ECCENTRICITY": 0.0001073, "INCLINATION": 53.1595, "RA_OF_ASC_NODE": 206.1674, "ARG_OF_PERICENTER": 85.9978, "MEAN_ANOMALY": 34.1063, "EPHEMERIS_TYPE": 0, "CLASSIFICATION_TYPE": "U", "NORAD_CAT_ID": 66617, "ELEMENT_SET_NO": 999, "REV_AT_EPOCH": 361, "BSTAR": -0.021014, "MEAN_MOTION_DOT": -0.02003414, "MEAN_MOTION_DDOT": 0}, "tle": {"line1": "1 66617U 25271A   25342.83335647 -.02003414  00000+0 -21014-1 0  9992", "line2": "2 66617  53.1595 206.1674 0001073  85.9978  34.1063 15.66968803  3618"}}, "geometry": {"type": "Point", "coordinates": [76.529513902628, -46.560756265689896]}}, {"type": "Feature", "properties": {"norad_id": 66618, "name": "STARLINK-35970", "group": "last-30-days", "lat": -44.74484911271976, "lon": 156.07235134760842, "alt_km": 377.9422692562375, "timestamp": "2025-12-09T05:43:19.510351+00:00", "meta": {"OBJECT_NAME": "STARLINK-35970", "OBJECT_ID": "2025-271B", "EPOCH": "2025-12-08T20:00:01.999008", "MEAN_MOTION": 15.66962522, "ECCENTRICITY": 0.0001163, "INCLINATION": 53.1593, "RA_OF_ASC_NODE": 206.055, "ARG_OF_PERICENTER": 102.5221, "MEAN_ANOMALY": 70.9028, "EPHEMERIS_TYPE": 0, "CLASSIFICATION_TYPE": "U", "NORAD_CAT_ID": 66618, "ELEMENT_SET_NO": 999, "REV_AT_EPOCH": 361, "BSTAR": -0.020857, "MEAN_MOTION_DOT": -0.01989917, "MEAN_MOTION_DDOT": 0}, "tle": {"line1": "1 66618U 25271B   25342.83335647 -.01989917  00000+0 -20857-1 0  9997", "line2": "2 66618  53.1593 206.0550 0001163 102.5221  70.9028 15.66962522  3617"}}, "geometry": {"type": "Point", "coordinates": [156.07235134760842, -44.74484911271976]}}, {"type": "Feature", "properties": {"norad_id": 66619, "name": "STARLINK-35951", "group": "last-30-days", "lat": -49.851932579404384, "lon": 86.89143801666414, "alt_km": 378.0398950354538, "timestamp": "2025-12-09T05:43:19.510362+00:00", "meta": {"OBJECT_NAME": "STARLINK-35951", "OBJECT_ID": "2025-271C", "EPOCH": "2025-12-08T20:00:01.999008", "MEAN_MOTION": 15.66967683, "ECCENTRICITY": 0.0001087, "INCLINATION": 53.1593, "RA_OF_ASC_NODE": 206.1503, "ARG_OF_PERICENTER": 94.4174, "MEAN_ANOMALY": 33.3502, "EPHEMERIS_TYPE": 0, "CLASSIFICATION_TYPE": "U", "NORAD_CAT_ID": 66619, "ELEMENT_SET_NO": 999, "REV_AT_EPOCH": 361, "BSTAR": -0.020962, "MEAN_MOTION_DOT": -0.0199903, "MEAN_MOTION_DDOT": 0}, "tle": {"line1": "1 66619U 25271C   25342.83335647 -.01999030  00000+0 -20962-1 0  9992", "line2": "2 66619  53.1593 206.1503 0001087  94.4174  33.3502 15.66967683  3611"}}, "geometry": {"type": "Point", "coordinates": [86.89143801666414, -49.851932579404384]}}, {"type": "Feature", "properties": {"norad_id": 66620, "name": "STARLINK-35936", "group": "last-30-days", "lat": -47.46907828722414, "lon": 78.99398762738335, "alt_km": 377.9119992882188, "timestamp": "2025-12-09T05:43:19.510372+00:00", "meta": {"OBJECT_NAME": "STARLINK-35936", "OBJECT_ID": "2025-271D", "EPOCH": "2025-12-08T20:00:01.999008", "MEAN_MOTION": 15.66969417, "ECCENTRICITY": 0.0001038, "INCLINATION": 53.1593, "RA_OF_ASC_NODE": 206.1632, "ARG_OF_PERICENTER": 91.1332, "MEAN_ANOMALY": 30.8831, "EPHEMERIS_TYPE": 0, "CLASSIFICATION_TYPE": "U", "NORAD_CAT_ID": 66620, "ELEMENT_SET_NO": 999, "REV_AT_EPOCH": 361, "BSTAR": -0.020974, "MEAN_MOTION_DOT": -0.02000116, "MEAN_MOTION_DDOT": 0}, "tle": {"line1": "1 66620U 25271D   25342.83335647 -.02000116  00000+0 -20974-1 0  9996", "line2": "2 66620  53.1593 206.1632 0001038  91.1332  30.8831 15.66969417  3616"}}, "geometry": {"type": "Point", "coordinates": [78.99398762738335, -47.46907828722414]}}, {"type": "Feature", "properties": {"norad_id": 66621, "name": "STARLINK-35847", "group": "last-30-days", "lat": -42.780403690127585, "lon": 160.12877023921925, "alt_km": 377.8705018265264, "timestamp": "2025-12-09T05:43:19.510388+00:00", "meta": {"OBJECT_NAME": "STARLINK-35847", "OBJECT_ID": "2025-271E", "EPOCH": "2025-12-08T20:00:01.999008", "MEAN_MOTION": 15.66962081, "ECCENTRICITY": 0.000118, "INCLINATION": 53.1591, "RA_OF_ASC_NODE": 206.0472, "ARG_OF_PERICENTER": 105.7128, "MEAN_ANOMALY": 71.2484, "EPHEMERIS_TYPE": 0, "CLASSIFICATION_TYPE": "U", "NORAD_CAT_ID": 66621, "ELEMENT_SET_NO": 999, "REV_AT_EPOCH": 361, "BSTAR": -0.020832, "MEAN_MOTION_DOT": -0.01987799, "MEAN_MOTION_DDOT": 0}, "tle": {"line1": "1 66621U 25271E   25342.83335647 -.01987799  00000+0 -20832-1 0  9990", "line2": "2 66621  53.1591 206.0472 0001180 105.7128  71.2484 15.66962081  3612"}}, "geometry": {"type": "Point", "coordinates": [160.12877023921925, -42.780403690127585]}}, {"type": "Feature", "properties": {"norad_id": 66622, "name": "STARLINK-35950", "group": "last-30-days", "lat": -50.52062499537166, "lon": 89.69013851884884, "alt_km": 378.06869093782643, "timestamp": "2025-12-09T05:43:19.510401+00:00", "meta": {"OBJECT_NAME": "STARLINK-35950", "OBJECT_ID": "2025-271F", "EPOCH": "2025-12-08T20:00:01.999008", "MEAN_MOTION": 15.66967143, "ECCENTRICITY": 0.000109, "INCLINATION": 53.1595, "RA_OF_ASC_NODE": 206.1469, "ARG_OF_PERICENTER": 94.9528, "MEAN_ANOMALY": 34.7334, "EPHEMERIS_TYPE": 0, "CLASSIFICATION_TYPE": "U", "NORAD_CAT_ID": 66622, "ELEMENT_SET_NO": 999, "REV_AT_EPOCH": 361, "BSTAR": -0.020952, "MEAN_MOTION_DOT": -0.01998125, "MEAN_MOTION_DDOT": 0}, "tle": {"line1": "1 66622U 25271F   25342.83335647 -.01998125  00000+0 -20952-1 0  9999", "line2": "2 66622  53.1595 206.1469 0001090  94.9528  34.7334 15.66967143  3619"}}, "geometry": {"type": "Point", "coordinates": [89.69013851884884, -50.52062499537166]}}, {"type": "Feature", "properties": {"norad_id": 66623, "name": "STARLINK-35920", "group": "last-30-days", "lat": -51.64507189689729, "lon": 95.50074915863402, "alt_km": 378.17101725983775, "timestamp": "2025-12-09T05:43:19.510411+00:00", "meta": {"OBJECT_NAME": "STARLINK-35920", "OBJECT_ID": "2025-271G", "EPOCH": "2025-12-08T20:00:01.999008", "MEAN_MOTION": 15.66967083, "ECCENTRICITY": 0.0001138, "INCLINATION": 53.1591, "RA_OF_ASC_NODE": 206.1386, "ARG_OF_PERICENTER": 86.2814, "MEAN_ANOMALY": 47.2372, "EPHEMERIS_TYPE": 0, "CLASSIFICATION_TYPE": "U", "NORAD_CAT_ID": 66623, "ELEMENT_SET_NO": 999, "REV_AT_EPOCH": 361, "BSTAR": -0.020945, "MEAN_MOTION_DOT": -0.01997608, "MEAN_MOTION_DDOT": 0}, "tle": {"line1": "1 66623U 25271G   25342.83335647 -.01997608  00000+0 -20945-1 0  9997", "line2": "2 66623  53.1591 206.1386 0001138  86.2814  47.2372 15.66967083  3613"}}, "geometry": {"type": "Point", "coordinates": [95.50074915863402, -51.64507189689729]}}, {"type": "Feature", "properties": {"norad_id": 66624, "name": "STARLINK-35927", "group": "last-30-days", "lat": -51.11855351260247, "lon": 92.55714455645466, "alt_km": 378.1058315485416, "timestamp": "2025-12-09T05:43:19.510421+00:00", "meta": {"OBJECT_NAME": "STARLINK-35927", "OBJECT_ID": "2025-271H", "EPOCH": "2025-12-08T20:00:01.999008", "MEAN_MOTION": 15.66964964, "ECCENTRICITY": 0.0001093, "INCLINATION": 53.1595, "RA_OF_ASC_NODE": 206.143, "ARG_OF_PERICENTER": 85.5342, "MEAN_ANOMALY": 46.0643, "EPHEMERIS_TYPE": 0, "CLASSIFICATION_TYPE": "U", "NORAD_CAT_ID": 66624, "ELEMENT_SET_NO": 999, "REV_AT_EPOCH": 361, "BSTAR": -0.020852, "MEAN_MOTION_DOT": -0.01989573, "MEAN_MOTION_DDOT": 0}, "tle": {"line1": "1 66624U 25271H   25342.83335647 -.01989573  00000+0 -20852-1 0  9997", "line2": "2 66624  53.1595 206.1430 0001093  85.5342  46.0643 15.66964964  3619"}}, "geometry": {"type": "Point", "coordinates": [92.55714455645466, -51.11855351260247]}}, {"type": "Feature", "properties": {"norad_id": 66625, "name": "STARLINK-35929", "group": "last-30-days", "lat": -52.102708541924045, "lon": 98.55539514552711, "alt_km": 378.30019648534835, "timestamp": "2025-12-09T05:43:19.510431+00:00", "meta": {"OBJECT_NAME": "STARLINK-35929", "OBJECT_ID": "2025-271J", "EPOCH": "2025-12-08T20:00:01.999008", "MEAN_MOTION": 15.67095201, "ECCENTRICITY": 0.0001229, "INCLINATION": 53.159, "RA_OF_ASC_NODE": 206.1347, "ARG_OF_PERICENTER": 116.4849, "MEAN_ANOMALY": 18.9282, "EPHEMERIS_TYPE": 0, "CLASSIFICATION_TYPE": "U", "NORAD_CAT_ID": 66625, "ELEMENT_SET_NO": 999, "REV_AT_EPOCH": 361, "BSTAR": -0.023142, "MEAN_MOTION_DOT": -0.02189238, "MEAN_MOTION_DDOT": 0}, "tle": {"line1": "1 66625U 25271J   25342.83335647 -.02189238  00000+0 -23142-1 0  9994", "line2": "2 66625  53.1590 206.1347 0001229 116.4849  18.9282 15.67095201  3616"}}, "geometry": {"type": "Point", "coordinates": [98.55539514552711, -52.102708541924045]}}, {"type": "Feature", "properties": {"norad_id": 66626, "name": "STARLINK-35902", "group": "last-30-days", "lat": -52.46997730645089, "lon": 101.57345570406427, "alt_km": 378.1823951518991, "timestamp": "2025-12-09T05:43:19.510441+00:00", "meta": {"OBJECT_NAME": "STARLINK-35902", "OBJECT_ID": "2025-271K", "EPOCH": "2025-12-08T20:00:01.999008", "MEAN_MOTION": 15.66964959, "ECCENTRICITY": 0.0001141, "INCLINATION": 53.1593, "RA_OF_ASC_NODE": 206.1302, "ARG_OF_PERICENTER": 94.5676, "MEAN_ANOMALY": 42.7852, "EPHEMERIS_TYPE": 0, "CLASSIFICATION_TYPE": "U", "NORAD_CAT_ID": 66626, "ELEMENT_SET_NO": 999, "REV_AT_EPOCH": 361, "BSTAR": -0.020893, "MEAN_MOTION_DOT": -0.01993086, "MEAN_MOTION_DDOT": 0}, "tle": {"line1": "1 66626U 25271K   25342.83335647 -.01993086  00000+0 -20893-1 0  9998", "line2": "2 66626  53.1593 206.1302 0001141  94.5676  42.7852 15.66964959  3610"}}, "geometry": {"type": "Point", "coordinates": [101.57345570406427, -52.46997730645089]}}]}